[{"OBJECT_NAME":"ONEWEB-0495","OBJECT_ID":"2022-138C","EPOCH":"2025-12-08T07:21:53.090208","MEAN_MOTION":13.19723297,"ECCENTRICITY":0.00024325,"INCLINATION":87.9189,"RA_OF_ASC_NODE":342.9562,"ARG_OF_PERICENTER":81.4464,"MEAN_ANOMALY":278.6944,"EPHEMERIS_TYPE":0,"CLASSIFICATION_TYPE":"U","NORAD_CAT_ID":54115,"ELEMENT_SET_NO":999,"REV_AT_EPOCH":15164,"BSTAR":-6.1087671e-5,"MEAN_MOTION_DOT":-1.2e-7,"MEAN_MOTION_DDOT":0},{"OBJECT_NAME":"ONEWEB-0497","OBJECT_ID":"2022-138D","EPOCH":"2025-12-08T05:50:54.848832","MEAN_MOTION":13.19724424,"ECCENTRICITY":0.00018705,"INCLINATION":87.9196,"RA_OF_ASC_NODE":342.9549,"ARG_OF_PERICENTER":87.1734,"MEAN_ANOMALY":272.9613,"EPHEMERIS_TYPE":0,"CLASSIFICATION_TYPE":"U","NORAD_CAT_ID":54116,"ELEMENT_SET_NO":999,"REV_AT_EPOCH":15162,"BSTAR":3.3417768e-5,"MEAN_MOTION_DOT":2.6e-7,"MEAN_MOTION_DDOT":0},{"OBJECT_NAME":"ONEWEB-0499","OBJECT_ID":"2022-138E","EPOCH":"2025-12-08T07:16:13.432800","MEAN_MOTION":13.19725323,"ECCENTRICITY":0.00019694,"INCLINATION":87.9195,"RA_OF_ASC_NODE":342.9564,"ARG_OF_PERICENTER":91.3466,"MEAN_ANOMALY":268.7892,"EPHEMERIS_TYPE":0,"CLASSIFICATION_TYPE":"U","NORAD_CAT_ID":54117,"ELEMENT_SET_NO":999,"REV_AT_EPOCH":15164,"BSTAR":-1.7644798e-5,"MEAN_MOTION_DOT":6.0e-8,"MEAN_MOTION_DDOT":0},{"OBJECT_NAME":"ONEWEB-0500","OBJECT_ID":"2022-138F","EPOCH":"2025-12-08T07:19:37.457760","MEAN_MOTION":13.19723341,"ECCENTRICITY":0.00017095,"INCLINATION":87.92,"RA_OF_ASC_NODE":342.9433,"ARG_OF_PERICENTER":87.4025,"MEAN_ANOMALY":272.7304,"EPHEMERIS_TYPE":0,"CLASSIFICATION_TYPE":"U","NORAD_CAT_ID":54118,"ELEMENT_SET_NO":999,"REV_AT_EPOCH":15165,"BSTAR":-0.00013022348,"MEAN_MOTION_DOT":-3.9e-7,"MEAN_MOTION_DDOT":0},{"OBJECT_NAME":"ONEWEB-0501","OBJECT_ID":"2022-138G","EPOCH":"2025-12-08T06:13:40.393056","MEAN_MOTION":13.19724339,"ECCENTRICITY":0.00021655,"INCLINATION":87.9207,"RA_OF_ASC_NODE":342.9505,"ARG_OF_PERICENTER":85.6975,"MEAN_ANOMALY":274.4406,"EPHEMERIS_TYPE":0,"CLASSIFICATION_TYPE":"U","NORAD_CAT_ID":54119,"ELEMENT_SET_NO":999,"REV_AT_EPOCH":15162,"BSTAR":7.5274665e-5,"MEAN_MOTION_DOT":4.3e-7,"MEAN_MOTION_DDOT":0},{"OBJECT_NAME":"ONEWEB-0502","OBJECT_ID":"2022-138H","EPOCH":"2025-12-08T05:53:11.823936","MEAN_MOTION":13.19724771,"ECCENTRICITY":0.00020796,"INCLINATION":87.9204,"RA_OF_ASC_NODE":342.9349,"ARG_OF_PERICENTER":89.7572,"MEAN_ANOMALY":270.3799,"EPHEMERIS_TYPE":0,"CLASSIFICATION_TYPE":"U","NORAD_CAT_ID":54120,"ELEMENT_SET_NO":999,"REV_AT_EPOCH":15164,"BSTAR":-0.00012989486,"MEAN_MOTION_DOT":-3.9e-7,"MEAN_MOTION_DDOT":0},{"OBJECT_NAME":"ONEWEB-0503","OBJECT_ID":"2022-138J","EPOCH":"2025-12-08T05:37:16.010976","MEAN_MOTION":13.19724637,"ECCENTRICITY":0.00018669,"INCLINATION":87.9203,"RA_OF_ASC_NODE":342.9411,"ARG_OF_PERICENTER":97.6196,"MEAN_ANOMALY":262.5149,"EPHEMERIS_TYPE":0,"CLASSIFICATION_TYPE":"U","NORAD_CAT_ID":54121,"ELEMENT_SET_NO":999,"REV_AT_EPOCH":15163,"BSTAR":-7.520588e-5,"MEAN_MOTION_DOT":-1.7e-7,"MEAN_MOTION_DDOT":0},{"OBJECT_NAME":"ONEWEB-0504","OBJECT_ID":"2022-138K","EPOCH":"2025-12-08T07:08:14.349984","MEAN_MOTION":13.19723553,"ECCENTRICITY":0.0002016,"INCLINATION":87.9201,"RA_OF_ASC_NODE":342.945,"ARG_OF_PERICENTER":90.4843,"MEAN_ANOMALY":269.652,"EPHEMERIS_TYPE":0,"CLASSIFICATION_TYPE":"U","NORAD_CAT_ID":54122,"ELEMENT_SET_NO":999,"REV_AT_EPOCH":15165,"BSTAR":9.0611914e-5,"MEAN_MOTION_DOT":4.9e-7,"MEAN_MOTION_DDOT":0},{"OBJECT_NAME":"ONEWEB-0505","OBJECT_ID":"2022-138L","EPOCH":"2025-12-08T07:03:42.049152","MEAN_MOTION":13.19724028,"ECCENTRICITY":0.0002302,"INCLINATION":87.9205,"RA_OF_ASC_NODE":342.9352,"ARG_OF_PERICENTER":86.5274,"MEAN_ANOMALY":273.6122,"EPHEMERIS_TYPE":0,"CLASSIFICATION_TYPE":"U","NORAD_CAT_ID":54123,"ELEMENT_SET_NO":999,"REV_AT_EPOCH":15163,"BSTAR":-6.4537452e-5,"MEAN_MOTION_DOT":-1.3e-7,"MEAN_MOTION_DDOT":0},{"OBJECT_NAME":"ONEWEB-0506","OBJECT_ID":"2022-138M","EPOCH":"2025-12-08T06:27:18.897408","MEAN_MOTION":13.19724174,"ECCENTRICITY":0.00019821,"INCLINATION":87.9205,"RA_OF_ASC_NODE":342.9375,"ARG_OF_PERICENTER":88.7074,"MEAN_ANOMALY":271.4286,"EPHEMERIS_TYPE":0,"CLASSIFICATION_TYPE":"U","NORAD_CAT_ID":54124,"ELEMENT_SET_NO":999,"REV_AT_EPOCH":15162,"BSTAR":3.608785e-6,"MEAN_MOTION_DOT":1.4e-7,"MEAN_MOTION_DDOT":0},{"OBJECT_NAME":"ONEWEB-0507","OBJECT_ID":"2022-138N","EPOCH":"2025-12-08T06:56:52.820736","MEAN_MOTION":13.19724073,"ECCENTRICITY":0.00019441,"INCLINATION":87.9188,"RA_OF_ASC_NODE":342.9693,"ARG_OF_PERICENTER":85.0501,"MEAN_ANOMALY":275.0854,"EPHEMERIS_TYPE":0,"CLASSIFICATION_TYPE":"U","NORAD_CAT_ID":54125,"ELEMENT_SET_NO":999,"REV_AT_EPOCH":15167,"BSTAR":3.3171679e-5,"MEAN_MOTION_DOT":2.6e-7,"MEAN_MOTION_DDOT":0},{"OBJECT_NAME":"ONEWEB-0508","OBJECT_ID":"2022-138P","EPOCH":"2025-12-08T06:52:20.220096","MEAN_MOTION":13.19724517,"ECCENTRICITY":0.00020911,"INCLINATION":87.9194,"RA_OF_ASC_NODE":342.9632,"ARG_OF_PERICENTER":82.9339,"MEAN_ANOMALY":277.2032,"EPHEMERIS_TYPE":0,"CLASSIFICATION_TYPE":"U","NORAD_CAT_ID":54126,"ELEMENT_SET_NO":999,"REV_AT_EPOCH":15165,"BSTAR":-3.3362995e-5,"MEAN_MOTION_DOT":0,"MEAN_MOTION_DDOT":0},{"OBJECT_NAME":"ONEWEB-0509","OBJECT_ID":"2022-138Q","EPOCH":"2025-12-08T06:15:56.103264","MEAN_MOTION":13.19723345,"ECCENTRICITY":0.00019171,"INCLINATION":87.9208,"RA_OF_ASC_NODE":342.9384,"ARG_OF_PERICENTER":87.6726,"MEAN_ANOMALY":272.4626,"EPHEMERIS_TYPE":0,"CLASSIFICATION_TYPE":"U","NORAD_CAT_ID":54127,"ELEMENT_SET_NO":999,"REV_AT_EPOCH":15162,"BSTAR":-0.00018369259,"MEAN_MOTION_DOT":-6.1e-7,"MEAN_MOTION_DDOT":0},{"OBJECT_NAME":"ONEWEB-0510","OBJECT_ID":"2022-138R","EPOCH":"2025-12-08T07:12:10.556352","MEAN_MOTION":13.20769218,"ECCENTRICITY":0.00013374,"INCLINATION":87.9191,"RA_OF_ASC_NODE":312.504,"ARG_OF_PERICENTER":91.409,"MEAN_ANOMALY":268.7197,"EPHEMERIS_TYPE":0,"CLASSIFICATION_TYPE":"U","NORAD_CAT_ID":54128,"ELEMENT_SET_NO":999,"REV_AT_EPOCH":15408,"BSTAR":-5.982098e-6,"MEAN_MOTION_DOT":1.1e-7,"MEAN_MOTION_DDOT":0},{"OBJECT_NAME":"ONEWEB-0511","OBJECT_ID":"2022-138S","EPOCH":"2025-12-08T06:11:23.763552","MEAN_MOTION":13.19724157,"ECCENTRICITY":0.00019213,"INCLINATION":87.9209,"RA_OF_ASC_NODE":342.9423,"ARG_OF_PERICENTER":97.238,"MEAN_ANOMALY":262.8971,"EPHEMERIS_TYPE":0,"CLASSIFICATION_TYPE":"U","NORAD_CAT_ID":54129,"ELEMENT_SET_NO":999,"REV_AT_EPOCH":15165,"BSTAR":-1.04055e-7,"MEAN_MOTION_DOT":1.3e-7,"MEAN_MOTION_DDOT":0},{"OBJECT_NAME":"ONEWEB-0512","OBJECT_ID":"2022-138T","EPOCH":"2025-12-08T06:00:01.064448","MEAN_MOTION":13.19725212,"ECCENTRICITY":0.00021945,"INCLINATION":87.919,"RA_OF_ASC_NODE":342.9687,"ARG_OF_PERICENTER":89.6814,"MEAN_ANOMALY":270.457,"EPHEMERIS_TYPE":0,"CLASSIFICATION_TYPE":"U","NORAD_CAT_ID":54130,"ELEMENT_SET_NO":999,"REV_AT_EPOCH":15162,"BSTAR":-3.6711605e-5,"MEAN_MOTION_DOT":-2.0e-8,"MEAN_MOTION_DDOT":0},{"OBJECT_NAME":"ONEWEB-0513","OBJECT_ID":"2022-138U","EPOCH":"2025-12-08T06:10:54.657120","MEAN_MOTION":13.20277293,"ECCENTRICITY":0.00025606,"INCLINATION":87.9207,"RA_OF_ASC_NODE":342.9283,"ARG_OF_PERICENTER":95.7968,"MEAN_ANOMALY":264.3457,"EPHEMERIS_TYPE":0,"CLASSIFICATION_TYPE":"U","NORAD_CAT_ID":54131,"ELEMENT_SET_NO":999,"REV_AT_EPOCH":15152,"BSTAR":-0.0083741467,"MEAN_MOTION_DOT":-3.366e-5,"MEAN_MOTION_DDOT":0}]
