ONEWEB-0495             
1 54115U 22138C   25342.30686447 -.00000012  00000+0 -61088-4 0  9997
2 54115  87.9189 342.9562 0002432  81.4464 278.6944 13.19723297151640
ONEWEB-0497             
1 54116U 22138D   25342.24369038  .00000026  00000+0  33418-4 0  9994
2 54116  87.9196 342.9549 0001870  87.1734 272.9613 13.19724424151623
ONEWEB-0499             
1 54117U 22138E   25342.30293325  .00000006  00000+0 -17645-4 0  9990
2 54117  87.9195 342.9564 0001969  91.3466 268.7892 13.19725323151641
ONEWEB-0500             
1 54118U 22138F   25342.30529465 -.00000039  00000+0 -13022-3 0  9999
2 54118  87.9200 342.9433 0001709  87.4025 272.7304 13.19723341151655
ONEWEB-0501             
1 54119U 22138G   25342.25949529  .00000043  00000+0  75275-4 0  9993
2 54119  87.9207 342.9505 0002165  85.6975 274.4406 13.19724339151621
ONEWEB-0502             
1 54120U 22138H   25342.24527574 -.00000039  00000+0 -12989-3 0  9995
2 54120  87.9204 342.9349 0002079  89.7572 270.3799 13.19724771151640
ONEWEB-0503             
1 54121U 22138J   25342.23421309 -.00000017  00000+0 -75206-4 0  9992
2 54121  87.9203 342.9411 0001866  97.6196 262.5149 13.19724637151635
ONEWEB-0504             
1 54122U 22138K   25342.29738831  .00000049  00000+0  90612-4 0  9991
2 54122  87.9201 342.9450 0002016  90.4843 269.6520 13.19723553151654
ONEWEB-0505             
1 54123U 22138L   25342.29423668 -.00000013  00000+0 -64537-4 0  9991
2 54123  87.9205 342.9352 0002302  86.5274 273.6122 13.19724028151631
ONEWEB-0506             
1 54124U 22138M   25342.26896872  .00000014  00000+0  36088-5 0  9990
2 54124  87.9205 342.9375 0001982  88.7074 271.4286 13.19724174151620
ONEWEB-0507             
1 54125U 22138N   25342.28950024  .00000026  00000+0  33172-4 0  9996
2 54125  87.9188 342.9693 0001944  85.0501 275.0854 13.19724073151671
ONEWEB-0508             
1 54126U 22138P   25342.28634514  .00000000  00000+0 -33363-4 0  9995
2 54126  87.9194 342.9632 0002091  82.9339 277.2032 13.19724517151654
ONEWEB-0509             
1 54127U 22138Q   25342.26106601 -.00000061  00000+0 -18369-3 0  9991
2 54127  87.9208 342.9384 0001917  87.6726 272.4626 13.19723345151624
ONEWEB-0510             
1 54128U 22138R   25342.30012218  .00000011  00000+0 -59821-5 0  9991
2 54128  87.9191 312.5040 0001337  91.4090 268.7197 13.20769218154086
ONEWEB-0511             
1 54129U 22138S   25342.25791393  .00000013  00000+0 -10405-6 0  9992
2 54129  87.9209 342.9423 0001921  97.2380 262.8971 13.19724157151650
ONEWEB-0512             
1 54130U 22138T   25342.25001232 -.00000002  00000+0 -36712-4 0  9996
2 54130  87.9190 342.9687 0002194  89.6814 270.4570 13.19725212151623
ONEWEB-0513             
1 54131U 22138U   25342.25757705 -.00003366  00000+0 -83741-2 0  9998
2 54131  87.9207 342.9283 0002560  95.7968 264.3457 13.20277293151528
